[Satellite]
VERSION=1.1
NAME=CYROCUBE
NICKNAME=CYROCUBE
TLE1=1 45258U 98067RB  20156.75133312  .00003764  00000-0  71971-4 0  9992
TLE2=2 45258  51.6429  49.1118 0005448 299.1719  60.8725 15.50773428 16508
STATUS=0
